NORAD_CAT_ID,OBJECT_NAME,OBJECT_TYPE,EPOCH,MEAN_MOTION,ECCENTRICITY,INCLINATION,RA_OF_ASC_NODE,ARG_OF_PERICENTER,MEAN_ANOMALY,BSTAR,MEAN_MOTION_DOT,MEAN_MOTION_DDOT,TLE_LINE0,TLE_LINE1,TLE_LINE2,SEMIMAJOR_AXIS,PERIOD,APOGEE,PERIGEE,DECAYED
53149.0,STARLINK-4021,PAYLOAD,2024-02-06 04:02:55,15.08851857,0.0001308,53.2186,347.4167,116.7982,243.3145,0.00013724,1.898e-05,0.0,0 STARLINK-4021,1 53149U 22083T   24037.16869311  .00001898  00000-0  13724-3 0  9994,2 53149  53.2186 347.4167 0001308 116.7982 243.3145 15.08851857 86876,6917.844,95.437,540.614,538.804,0.0
53149.0,STARLINK-4021,PAYLOAD,2024-02-06 05:38:18,15.08853527,0.0001344,53.2186,347.1192,122.0917,238.0206,0.00014755,2.062e-05,0.0,0 STARLINK-4021,1 53149U 22083T   24037.23493111  .00002062  00000-0  14755-3 0  9992,2 53149  53.2186 347.1192 0001344 122.0917 238.0206 15.08853527 86256,6917.839,95.437,540.634,538.774,0.0
53149.0,STARLINK-4021,PAYLOAD,2024-02-07 03:53:43,15.08841833,0.0001608,53.2198,342.952,77.0604,283.0568,4.2151e-05,3.83e-06,0.0,0 STARLINK-4021,1 53149U 22083T   24038.16230461  .00000383  00000-0  42151-4 0  9998,2 53149  53.2198 342.9520 0001608  77.0604 283.0568 15.08841833 87026,6917.875,95.437,540.852,538.627,0.0
53149.0,STARLINK-4021,PAYLOAD,2024-02-07 13:26:02,15.08831525,0.0001675,53.2204,341.1685,81.7968,278.3214,-2.7736e-05,-7.29e-06,0.0,0 STARLINK-4021,1 53149U 22083T   24038.55975368 -.00000729  00000-0 -27736-4 0  9991,2 53149  53.2204 341.1685 0001675  81.7968 278.3214 15.08831525 86454,6917.906,95.438,540.93,538.613,0.0
53149.0,STARLINK-4021,PAYLOAD,2024-02-08 02:09:07,15.08841519,0.0001466,53.2195,338.7922,92.9962,267.1198,-8.6339e-05,-1.662e-05,0.0,0 STARLINK-4021,1 53149U 22083T   24039.08967017 -.00001662  00000-0 -86339-4 0  9993,2 53149  53.2195 338.7922 0001466  92.9962 267.1198 15.08841519 87165,6917.876,95.437,540.755,538.727,0.0
53149.0,STARLINK-4021,PAYLOAD,2024-02-08 05:19:53,15.08844463,0.0001922,53.2194,338.1922,82.2121,277.909,-2.5945e-05,-7.01e-06,0.0,0 STARLINK-4021,1 53149U 22083T   24039.22214800 -.00000701  00000-0 -25945-4 0  9993,2 53149  53.2194 338.1922 0001922  82.2121 277.9090 15.08844463 86557,6917.867,95.437,541.061,538.402,0.0
53149.0,STARLINK-4021,PAYLOAD,2024-02-08 22:49:07,15.08844469,0.0001669,53.2194,334.9231,110.084,250.0332,1.3755e-05,-6.9e-07,0.0,0 STARLINK-4021,1 53149U 22083T   24039.95078544 -.00000069  00000-0  13755-4 0  9998,2 53149  53.2194 334.9231 0001669 110.0840 250.0332 15.08844469 86669,6917.867,95.437,540.886,538.577,0.0
53149.0,STARLINK-4021,PAYLOAD,2024-02-09 01:59:54,15.0884749,0.0001548,53.2192,334.3288,85.0153,275.1016,4.1275e-05,3.69e-06,0.0,0 STARLINK-4021,1 53149U 22083T   24040.08326412  .00000369  00000-0  41275-4 0  9994,2 53149  53.2192 334.3288 0001548  85.0153 275.1016 15.08847490 87314,6917.857,95.437,540.793,538.652,0.0
53149.0,STARLINK-4021,PAYLOAD,2024-02-09 05:10:39,15.0885969,0.000132,53.2187,333.7335,107.1776,252.9361,0.00014226,1.978e-05,0.0,0 STARLINK-4021,1 53149U 22083T   24040.21573159  .00001978  00000-0  14226-3 0  9993,2 53149  53.2187 333.7335 0001320 107.1776 252.9361 15.08859690 87332,6917.82,95.436,540.598,538.772,0.0
53149.0,STARLINK-4021,PAYLOAD,2024-02-09 19:29:09,15.08830415,0.0001449,53.2179,331.0549,94.9724,265.1433,3.1419e-05,2.12e-06,0.0,0 STARLINK-4021,1 53149U 22083T   24040.81191556  .00000212  00000-0  31419-4 0  9990,2 53149  53.2179 331.0549 0001449  94.9724 265.1433 15.08830415 87429,6917.91,95.438,540.777,538.772,0.0
53149.0,STARLINK-4021,PAYLOAD,2024-02-10 01:50:41,15.08840279,0.0001617,53.2193,329.8687,108.2617,251.8551,3.812e-05,3.19e-06,0.0,0 STARLINK-4021,1 53149U 22083T   24041.07686988  .00000319  00000-0  38120-4 0  9991,2 53149  53.2193 329.8687 0001617 108.2617 251.8551 15.08840279 87466,6917.88,95.438,540.863,538.626,0.0
53149.0,STARLINK-4021,PAYLOAD,2024-02-10 05:01:27,15.08844079,0.0001425,53.2185,329.2711,104.8047,255.3103,7.1178e-05,8.45e-06,0.0,0 STARLINK-4021,1 53149U 22083T   24041.20934684  .00000845  00000-0  71178-4 0  9999,2 53149  53.2185 329.2711 0001425 104.8047 255.3103 15.08844079 86851,6917.868,95.437,540.719,538.747,0.0
53149.0,STARLINK-4021,PAYLOAD,2024-02-10 22:30:42,15.08843026,0.0001309,53.2185,325.999,114.8593,245.2536,-7.7363e-05,-1.519e-05,0.0,0 STARLINK-4021,1 53149U 22083T   24041.93799303 -.00001519  00000-0 -77363-4 0  9999,2 53149  53.2185 325.9990 0001309 114.8593 245.2536 15.08843026 86962,6917.871,95.437,540.642,538.831,0.0
53149.0,STARLINK-4021,PAYLOAD,2024-02-11 01:41:28,15.08846337,0.0001411,53.2188,325.4027,116.1622,243.9516,-5.6826e-05,-1.192e-05,0.0,0 STARLINK-4021,1 53149U 22083T   24042.07046846 -.00001192  00000-0 -56826-4 0  9990,2 53149  53.2188 325.4027 0001411 116.1622 243.9516 15.08846337 86986,6917.861,95.437,540.702,538.75,0.0
53149.0,STARLINK-4021,PAYLOAD,2024-02-11 22:21:29,15.08843456,0.0001279,53.2186,321.5362,114.6621,245.4504,3.6286e-05,2.9e-06,0.0,0 STARLINK-4021,1 53149U 22083T   24042.93158921  .00000290  00000-0  36286-4 0  9997,2 53149  53.2186 321.5362 0001279 114.6621 245.4504 15.08843456 87116,6917.87,95.437,540.62,538.85,0.0
53149.0,STARLINK-4021,PAYLOAD,2024-02-12 01:32:14,15.08858621,0.0001177,53.2183,320.9439,106.7863,253.3258,0.00019678,2.847e-05,0.0,0 STARLINK-4021,1 53149U 22083T   24043.06405587  .00002847  00000-0  19678-3 0  9990,2 53149  53.2183 320.9439 0001177 106.7863 253.3258 15.08858621 87763,6917.823,95.436,540.503,538.874,0.0
53149.0,STARLINK-4021,PAYLOAD,2024-02-12 04:43:00,15.08858014,0.0001279,53.2186,320.3496,112.2038,247.909,0.00017774,2.543e-05,0.0,0 STARLINK-4021,1 53149U 22083T   24043.19653572  .00002543  00000-0  17774-3 0  9991,2 53149  53.2186 320.3496 0001279 112.2038 247.9090 15.08858014 87154,6917.825,95.436,540.575,538.806,0.0
53149.0,STARLINK-4021,PAYLOAD,2024-02-12 22:12:17,15.08835347,0.0001737,53.2172,317.0707,119.5487,240.5678,-9.9051e-06,-4.46e-06,0.0,0 STARLINK-4021,1 53149U 22083T   24043.92519693 -.00000446  00000-0 -99051-5 0  9999,2 53149  53.2172 317.0707 0001737 119.5487 240.5678 15.08835347 87261,6917.895,95.438,540.961,538.558,0.0
53149.0,STARLINK-4021,PAYLOAD,2024-02-12 23:47:40,15.08833481,0.0001265,53.2173,316.7711,75.5551,284.5582,-1.7351e-05,-5.64e-06,0.0,0 STARLINK-4021,1 53149U 22083T   24043.99144025 -.00000564  00000-0 -17351-4 0  9992,2 53149  53.2173 316.7711 0001265  75.5551 284.5582 15.08833481 87902,6917.9,95.438,540.64,538.89,0.0
53149.0,STARLINK-4021,PAYLOAD,2024-02-13 10:55:22,15.08832799,0.0001425,53.2186,314.7038,103.2717,256.8434,2.3584e-06,-2.5e-06,0.0,0 STARLINK-4021,1 53149U 22083T   24044.45512359 -.00000250  00000-0  23584-5 0  9990,2 53149  53.2186 314.7038 0001425 103.2717 256.8434 15.08832799 87344,6917.902,95.438,540.753,538.782,0.0
53149.0,STARLINK-4021,PAYLOAD,2024-02-13 22:03:03,15.088507,0.0001293,53.2177,312.6198,93.9529,266.1611,-6.3699e-05,-1.302e-05,0.0,0 STARLINK-4021,1 53149U 22083T   24044.91879627 -.00001302  00000-0 -63699-4 0  9995,2 53149  53.2177 312.6198 0001293  93.9529 266.1611 15.08850700 87418,6917.848,95.437,540.607,538.818,0.0
53149.0,STARLINK-4021,PAYLOAD,2024-02-14 02:49:11,15.08865701,0.0001365,53.2181,311.7287,112.7929,247.3208,6.1451e-05,6.91e-06,0.0,0 STARLINK-4021,1 53149U 22083T   24045.11749929  .00000691  00000-0  61451-4 0  9991,2 53149  53.2181 311.7287 0001365 112.7929 247.3208 15.08865701 88079,6917.802,95.436,540.611,538.723,0.0
53149.0,STARLINK-4021,PAYLOAD,2024-02-14 10:46:08,15.08853877,0.000146,53.2182,310.2433,86.1168,273.9991,-5.7446e-05,-1.202e-05,0.0,0 STARLINK-4021,1 53149U 22083T   24045.44870845 -.00001202  00000-0 -57446-4 0  9999,2 53149  53.2182 310.2433 0001460  86.1168 273.9991 15.08853877 88123,6917.838,95.437,540.713,538.693,0.0
53149.0,STARLINK-4021,PAYLOAD,2024-02-14 17:07:42,15.08836517,0.0002511,53.2181,309.0556,83.3771,276.7507,0.00020299,2.943e-05,0.0,0 STARLINK-4021,1 53149U 22083T   24045.71368157  .00002943  00000-0  20299-3 0  9993,2 53149  53.2181 309.0556 0002511  83.3771 276.7507 15.08836517 88161,6917.891,95.438,541.493,538.019,0.0
53149.0,STARLINK-4021,PAYLOAD,2024-02-15 02:40:00,15.0883975,0.0001561,53.2167,307.2683,85.7527,274.3643,0.00018841,2.712e-05,0.0,0 STARLINK-4021,1 53149U 22083T   24046.11112189  .00002712  00000-0  18841-3 0  9994,2 53149  53.2167 307.2683 0001561  85.7527 274.3643 15.08839750 87598,6917.881,95.438,540.826,538.666,0.0
53149.0,STARLINK-4021,PAYLOAD,2024-02-15 10:36:56,15.08836609,0.000155,53.2176,305.7828,85.9751,274.1419,0.00011164,1.489e-05,0.0,0 STARLINK-4021,1 53149U 22083T   24046.44232445  .00001489  00000-0  11164-3 0  9999,2 53149  53.2176 305.7828 0001550  85.9751 274.1419 15.08836609 88276,6917.891,95.438,540.828,538.683,0.0
53149.0,STARLINK-4021,PAYLOAD,2024-02-15 21:44:38,15.08840022,0.0001499,53.2176,303.7012,85.7953,274.321,8.5984e-05,1.081e-05,0.0,0 STARLINK-4021,1 53149U 22083T   24046.90600321  .00001081  00000-0  85984-4 0  9992,2 53149  53.2176 303.7012 0001499  85.7953 274.3210 15.08840022 87716,6917.88,95.438,540.782,538.708,0.0
53149.0,STARLINK-4021,PAYLOAD,2024-02-16 02:30:47,15.08851956,0.000142,53.217,302.8066,102.2913,257.8238,0.00010972,1.459e-05,0.0,0 STARLINK-4021,1 53149U 22083T   24047.10471574  .00001459  00000-0  10972-3 0  9994,2 53149  53.2170 302.8066 0001420 102.2913 257.8238 15.08851956 88371,6917.844,95.437,540.691,538.727,0.0
53149.0,STARLINK-4021,PAYLOAD,2024-02-16 10:27:43,15.08845331,0.0001387,53.2174,301.3195,92.4738,267.6412,2.6606e-05,1.36e-06,0.0,0 STARLINK-4021,1 53149U 22083T   24047.43591862  .00000136  00000-0  26606-4 0  9996,2 53149  53.2174 301.3195 0001387  92.4738 267.6412 15.08845331 88428,6917.864,95.437,540.689,538.77,0.0
53149.0,STARLINK-4021,PAYLOAD,2024-02-16 20:00:02,15.08837536,0.0001367,53.2157,299.5402,74.9009,285.2134,0.00018107,2.595e-05,0.0,0 STARLINK-4021,1 53149U 22083T   24047.83336467  .00002595  00000-0  18107-3 0  9995,2 53149  53.2157 299.5402 0001367  74.9009 285.2134 15.08837536 88483,6917.888,95.438,540.699,538.807,0.0
